GLOBALSTAR M084 [+]     
1 38040U 11080A   24113.78154976 -.00000091  00000+0  73707-4 0  9991
2 38040  52.0005 248.3394 0000738 138.9335   9.1293 12.62273712569852
GLOBALSTAR M082 [+]     
1 38042U 11080C   24113.43678278 -.00000078  00000+0  14294-3 0  9991
2 38042  52.0068 206.2523 0000415  41.9458  37.2235 12.62268344570362
GLOBALSTAR M092 [+]     
1 38043U 11080D   24113.81121036 -.00000051  00000+0  29589-3 0  9993
2 38043  52.0083 295.4658 0000589 118.2652 344.1973 12.62278981569078
GLOBALSTAR M086 [+]     
1 38045U 11080F   24113.74826802 -.00000066  00000+0  21266-3 0  9990
2 38045  51.9885 200.1719 0001403 113.4355  62.6638 12.62269886570562
GLOBALSTAR M097 [+]     
1 39072U 13005A   24113.41948328 -.00000088  00000+0  90128-4 0  9990
2 39072  52.0028 115.2929 0000547  66.0904 294.0020 12.62262550517674
GLOBALSTAR M093 [+]     
1 39073U 13005B   24113.15530573 -.00000073  00000+0  16952-3 0  9997
2 39073  51.9792 110.0721 0000648  57.6410 302.4519 12.62263438517712
